[{"OBJECT_NAME":"ONEWEB-0276","OBJECT_ID":"2021-060AD","EPOCH":"2026-03-09T22:25:54.137568","MEAN_MOTION":13.16593566,"ECCENTRICITY":0.00018143,"INCLINATION":87.9003,"RA_OF_ASC_NODE":248.5167,"ARG_OF_PERICENTER":94.1873,"MEAN_ANOMALY":265.9465,"EPHEMERIS_TYPE":0,"CLASSIFICATION_TYPE":"U","NORAD_CAT_ID":48994,"ELEMENT_SET_NO":999,"REV_AT_EPOCH":22651,"BSTAR":0.00020599833,"MEAN_MOTION_DOT":9.2e-7,"MEAN_MOTION_DDOT":0},{"OBJECT_NAME":"DELTA 1 DEB","OBJECT_ID":"1973-086EV","EPOCH":"2026-03-09T19:57:25.227072","MEAN_MOTION":13.05011749,"ECCENTRICITY":0.01904682,"INCLINATION":102.2937,"RA_OF_ASC_NODE":36.9398,"ARG_OF_PERICENTER":43.3387,"MEAN_ANOMALY":19.0093,"EPHEMERIS_TYPE":0,"CLASSIFICATION_TYPE":"U","NORAD_CAT_ID":7184,"ELEMENT_SET_NO":999,"REV_AT_EPOCH":47037,"BSTAR":0.0044264043,"MEAN_MOTION_DOT":1.507e-5,"MEAN_MOTION_DDOT":0}]
